ORBCOMM FM05 [-]        
1 25117U 97084F   24061.93308904  .00001649  00000+0  53844-3 0  9999
2 25117  45.0155 108.8530 0002774 324.6977  35.3689 14.42253873372343
ORBCOMM FM06 [+]        
1 25118U 97084G   24061.97465247  .00001849  00000+0  59839-3 0  9990
2 25118  45.0139 108.8354 0002011 314.4093 111.0057 14.42254682373262
ORBCOMM FM07 [-]        
1 25119U 97084H   24061.94970477  .00001621  00000+0  53092-3 0  9997
2 25119  45.0132 109.4534 0003708 323.0024  37.0570 14.42183896373251
ORBCOMM FM03 [-]        
1 25158U 98007B   24062.78195185  .00001283  00000+0  52105-3 0  9992
2 25158 107.9790 249.0456 0047513 349.1899  10.8215 14.31891430356644
ORBCOMM FM04 [+]        
1 25159U 98007C   24062.78291019  .00001296  00000+0  52417-3 0  9996
2 25159 107.9774 251.9400 0043154 346.8238  13.1771 14.32146724356784
ORBCOMM FM17 [-]        
1 25413U 98046A   24061.84487253  .00001068  00000+0  43888-3 0  9994
2 25413  44.9964 322.8614 0003032   0.6329 359.4521 14.32865086335370
ORBCOMM FM18 [-]        
1 25414U 98046B   24061.62303992  .00001491  00000+0  56191-3 0  9999
2 25414  44.9925 252.4553 0004178  70.5732 289.5567 14.35532175336270
ORBCOMM FM19 [+]        
1 25415U 98046C   24062.76707488  .00001588  00000+0  59721-3 0  9993
2 25415  44.9934 248.3716 0002941  71.6546 302.5929 14.35372718336607
